STARLINK-36670          
1 67828U 26033H   26178.82044535  .00031633  00000+0  11525-2 0  9991
2 67828  43.0020   5.3958 0001855 275.7304  84.3336 15.27625631 21513
STARLINK-36144          
1 67829U 26033J   26178.88070172  .00024653  00000+0  90167-3 0  9998
2 67829  43.0020   4.9860 0001617 275.3981  84.6686 15.27607199 21525
STARLINK-36611          
1 67830U 26033K   26178.89868964  .00019218  00000+0  70556-3 0  9996
2 67830  43.0033   5.1230 0001336 268.8270  91.2428 15.27604333 21526
STARLINK-36661          
1 67831U 26033L   26178.89483449  .00020071  00000+0  73635-3 0  9998
2 67831  43.0028   5.1013 0001347 267.3016  92.7681 15.27603990 21529
STARLINK-36662          
1 67832U 26033M   26178.86622896  .00017171  00000+0  63186-3 0  9994
2 67832  43.0027 357.8149 0001552 254.5489 105.5191 15.27590072 21600
STARLINK-36659          
1 67833U 26033N   26178.78575738  .00018788  00000+0  69015-3 0  9990
2 67833  43.0022   5.1182 0001641 266.2012  93.8652 15.27598190 21517
STARLINK-36655          
1 67834U 26033P   26178.90239435  .00016660  00000+0  61322-3 0  9996
2 67834  43.0026   4.2818 0001402 261.1476  98.9217 15.27597827 21532
STARLINK-36657          
1 67835U 26033Q   26178.58189368  .00018182  00000+0  66866-3 0  9999
2 67835  43.0037   6.1704 0001297 252.7264 107.3446 15.27578122 21483
STARLINK-36650          
1 67836U 26033R   26178.94223088  .00025160  00000+0  91982-3 0  9999
2 67836  43.0012   4.5861 0001385 274.3640  85.7053 15.27611557 21538
STARLINK-36649          
1 67837U 26033S   26178.82173997  .00017880  00000+0  65743-3 0  9996
2 67837  43.0024   5.4009 0001255 263.6113  96.4596 15.27592425 21519
STARLINK-36654          
1 67838U 26033T   26178.87298895  .00022686  00000+0  83077-3 0  9997
2 67838  43.0015   4.9233 0001413 270.0714  89.9975 15.27604406 21520
STARLINK-36652          
1 67839U 26033U   26178.93452028  .00015927  00000+0  58667-3 0  9992
2 67839  43.0005   4.5257 0001302 266.2227  93.8476 15.27600371 21533
STARLINK-36651          
1 67840U 26033V   26178.86528486  .00018539  00000+0  68101-3 0  9994
2 67840  43.0010   4.8636 0001264 263.4856  96.5852 15.27604552 21521
STARLINK-36656          
1 67841U 26033W   26178.92424110  .00019007  00000+0  69798-3 0  9995
2 67841  43.0018   4.4455 0001487 269.1265  90.9417 15.27602364 21534
STARLINK-36653          
1 67842U 26033X   26178.92038640  .00017864  00000+0  65691-3 0  9992
2 67842  43.0022   4.4167 0001706 272.5288  87.5368 15.27590601 21534
STARLINK-36589          
1 67843U 26033Y   26178.78190383  .00020640  00000+0  75702-3 0  9990
2 67843  43.0035   5.0949 0001631 264.9380  95.1285 15.27599755 21519
STARLINK-36598          
1 67844U 26033Z   26178.89226301  .00022386  00000+0  82053-3 0  9999
2 67844  43.0058   5.0740 0001708 279.0213  81.0445 15.27580304 21524
STARLINK-36606          
1 67845U 26033AA  26178.58317655  .00014881  00000+0  54903-3 0  9993
2 67845  43.0010   6.1755 0001381 261.8488  98.2207 15.27590144 21485
STARLINK-36658          
1 67846U 26033AB  26178.81916854  .00019758  00000+0  72513-3 0  9991
2 67846  43.0000   5.3822 0001587 272.3465  87.7205 15.27600503 21517
STARLINK-36618          
1 67847U 26033AC  26178.83118151  .00020674  00000+0  75824-3 0  9995
2 67847  42.9986 350.4187 0001395 281.9705  78.0990 15.27599071 21686
STARLINK-36660          
1 67848U 26033AD  26178.88198369  .00014911  00000+0  55000-3 0  9991
2 67848  43.0019   4.9933 0001428 271.5692  88.4996 15.27595732 21527
STARLINK-36602          
1 67849U 26033AE  26178.89611965  .00018776  00000+0  68963-3 0  9990
2 67849  43.0030   5.1029 0001450 268.9477  91.1208 15.27601268 21525
STARLINK-36840          
1 67850U 26034A   26178.89918361 -.00012743  00000+0 -41867-3 0  9997
2 67850  53.1603  52.0429 0001364  77.3990 282.7163 15.30213595 20912
STARLINK-36348          
1 67851U 26034B   26178.95197376  .00020148  00000+0  69042-3 0  9991
2 67851  53.1589  52.3778 0001154  91.9854 268.1279 15.30204984 20912
STARLINK-36276          
1 67852U 26034C   26178.94880698  .00026188  00000+0  89324-3 0  9992
2 67852  53.1589  52.3615 0001172 115.1722 244.9401 15.30198231 20912
STARLINK-36785          
1 67853U 26034D   26178.92663960  .00030648  00000+0  10426-2 0  9994
2 67853  53.1598  52.1922 0001197  84.8579 275.2558 15.30199202 20910
STARLINK-36608          
1 67854U 26034E   26178.91292308  .00019498  00000+0  66891-3 0  9996
2 67854  53.1608  52.1026 0001659  93.0542 267.0649 15.30190213 20905
STARLINK-36838          
1 67855U 26034F   26178.88662934  .00034009  00000+0  11017-2 0  9993
2 67855  53.1590  51.9435 0000984  90.1437 269.9677 15.31730653 20910
STARLINK-36843          
1 67856U 26034G   26178.89127667  .00028276  00000+0  91758-3 0  9994
2 67856  53.1598  51.9862 0000345 276.5876  83.5086 15.31766133 20917
STARLINK-36828          
1 67857U 26034H   26178.88628069  .00026404  00000+0  85963-3 0  9998
2 67857  53.1595  51.9366 0001005  88.6844 271.4273 15.31699417 20911
STARLINK-36837          
1 67858U 26034J   26178.92875365  .00023339  00000+0  69959-3 0  9998
2 67858  53.1581  49.3857 0001247  96.6841 263.4303 15.34406457 20959
STARLINK-36393          
1 67859U 26034K   26178.90019018  .00030435  00000+0  98832-3 0  9999
2 67859  53.1611  51.3144 0001212  91.5371 268.5770 15.31706597 20926
STARLINK-35873          
1 67860U 26034L   26178.88876418  .00028948  00000+0  98548-3 0  9993
2 67860  53.1583  52.6676 0000968  91.0592 269.0520 15.30206755 20937
STARLINK-36325          
1 67861U 26034M   26178.95091493  .00019755  00000+0  67724-3 0  9992
2 67861  53.1583  52.3464 0001149  91.2785 268.8347 15.30204790 20917
STARLINK-36332          
1 67862U 26034N   26178.94774832  .00025474  00000+0  86913-3 0  9993
2 67862  53.1592  52.3246 0001128  98.4372 261.6757 15.30205269 20912
STARLINK-36835          
1 67863U 26034P   26178.94458378  .00019868  00000+0  68101-3 0  9997
2 67863  53.1591  52.3059 0001199  90.0647 270.0491 15.30206277 20914
STARLINK-36831          
1 67864U 26034Q   26178.94140251  .00016613  00000+0  57251-3 0  9995
2 67864  53.1584  52.2821 0001191  72.9086 287.2046 15.30159041 20913
STARLINK-36738          
1 67865U 26034R   26178.93508120  .00020928  00000+0  71649-3 0  9999
2 67865  53.1588  52.2421 0000997  94.7510 265.3605 15.30210961 20918
STARLINK-36780          
1 67866U 26034S   26178.93191820  .00020292  00000+0  69523-3 0  9997
2 67866  53.1590  52.2231 0001007  88.0422 272.0694 15.30206805 20917
STARLINK-36761          
1 67867U 26034T   26178.86343649  .00024745  00000+0  84457-3 0  9998
2 67867  53.1595  52.5049 0001183  94.1488 265.9648 15.30209380 20908
STARLINK-36762          
1 67868U 26034U   26178.92453138  .00026905  00000+0  91713-3 0  9994
2 67868  53.1595  52.1753 0001184  83.4235 276.6901 15.30203385 20910
STARLINK-36779          
1 67869U 26034V   26178.93296106  .00024416  00000+0  73124-3 0  9997
2 67869  53.1587  49.3951 0001176  87.3205 272.7932 15.34407938 20949
STARLINK-36770          
1 67870U 26034W   26178.91714557  .00018440  00000+0  63305-3 0  9992
2 67870  53.1612  52.1293 0001283  84.9315 275.1833 15.30205634 20914
STARLINK-36769          
1 67871U 26034X   26178.91503305  .00025967  00000+0  88542-3 0  9992
2 67871  53.1601  52.1111 0001761  89.0520 271.0682 15.30213174 20912
STARLINK-36786          
1 67872U 26034Y   26178.94220074  .00014598  00000+0  48107-3 0  9996
2 67872  53.1589  51.5767 0001292  95.6860 264.4289 15.31712478 20929
STARLINK-36783          
1 67873U 26034Z   26178.93086017  .00021569  00000+0  64766-3 0  9998
2 67873  53.1613  49.3813 0001123  94.2166 265.8965 15.34399176 20950
STARLINK-36730          
1 67874U 26034AA  26178.92664888  .00025287  00000+0  75677-3 0  9990
2 67874  53.1590  49.3526 0000990  84.7294 275.3822 15.34409798 20953
STARLINK-36727          
1 67875U 26034AB  26178.90952887  .00020455  00000+0  66873-3 0  9998
2 67875  53.1606  51.3681 0001212  80.2660 279.8478 15.31718554 20926
STARLINK-36743          
1 67876U 26034AC  26178.94985804  .00018648  00000+0  64003-3 0  9992
2 67876  53.1601  52.3350 0001272  89.1685 270.9462 15.30206952 20914
STARLINK-36784          
1 67877U 26034AD  26178.91815783  .00018496  00000+0  65152-3 0  9995
2 67877  53.1605  52.8641 0000983  76.0063 284.1047 15.29364941 20906
STARLINK-36689          
1 67878U 26034AE  26178.94035934  .00022187  00000+0  75887-3 0  9999
2 67878  53.1590  52.2738 0001100 100.2936 259.8189 15.30204721 20910
STARLINK-36818          
1 67879U 26035A   26178.77122421  .00022128  00000+0  68541-3 0  9994
2 67879  97.2839 111.7487 0001477  93.8296 266.3116 15.33459630 20851
STARLINK-36821          
1 67880U 26035B   26178.76850639  .00023569  00000+0  72969-3 0  9993
2 67880  97.2839 111.7536 0001618 105.9708 254.1714 15.33462062 20850
STARLINK-36808          
1 67881U 26035C   26178.79025763  .00022181  00000+0  68706-3 0  9992
2 67881  97.2836 111.8807 0001554  97.1670 262.9750 15.33459338 20869
STARLINK-36817          
1 67882U 26035D   26178.80929302  .00031008  00000+0  95861-3 0  9997
2 67882  97.2842 111.8540 0002828  89.6409 270.5158 15.33451176 20861
STARLINK-36856          
1 67883U 26035E   26178.81201067  .00023937  00000+0  74101-3 0  9996
2 67883  97.2840 111.8491 0001775  92.7080 267.4366 15.33462117 20868
STARLINK-36842          
1 67884U 26035F   26178.76578857  .00025070  00000+0  77590-3 0  9990
2 67884  97.2839 111.7573 0001507  78.3537 281.7875 15.33460717 20854
STARLINK-36826          
1 67885U 26035G   26178.82015156  .00030478  00000+0  94110-3 0  9991
2 67885  97.2841 111.8346 0001761  87.8348 272.3096 15.33493967 20869
STARLINK-36390          
1 67886U 26035H   26178.76307630  .00033545  00000+0  10356-2 0  9993
2 67886  97.2832 111.7614 0001694  93.0175 267.1262 15.33481184 20853
